OBJECT_NAME,OBJECT_ID,EPOCH,MEAN_MOTION,ECCENTRICITY,INCLINATION,RA_OF_ASC_NODE,ARG_OF_PERICENTER,MEAN_ANOMALY,EPHEMERIS_TYPE,CLASSIFICATION_TYPE,NORAD_CAT_ID,ELEMENT_SET_NO,REV_AT_EPOCH,BSTAR,MEAN_MOTION_DOT,MEAN_MOTION_DDOT
STARLINK-5670,2023-013L,2024-07-11T12:33:26.309952,15.02554049,.000162,43.0055,354.3018,274.5684,85.4974,0,U,55341,999,8052,-.13031E-3,-.1964E-4,0
STARLINK-5657,2023-013M,2024-07-11T10:49:43.114944,15.02563082,.0001613,43.0030,354.6175,275.7779,84.2879,0,U,55342,999,8051,-.33521E-3,-.4732E-4,0
STARLINK-5661,2023-013N,2024-07-11T12:17:26.872512,15.02567719,.0001648,43.0044,354.2154,281.7308,78.3350,0,U,55343,999,8052,-.34621E-3,-.4881E-4,0
STARLINK-5662,2023-013P,2024-07-11T12:20:39.458976,15.02537722,.0001972,43.0064,354.2326,263.5579,96.5039,0,U,55344,999,8052,.11598E-3,.1363E-4,0
STARLINK-5653,2023-013Q,2024-07-11T13:53:33.820224,15.02535910,.0001317,43.0049,340.8277,273.1835,86.8857,0,U,55345,999,8068,.50646E-4,.481E-5,0
STARLINK-5631,2023-013R,2024-07-11T12:14:16.333728,15.02537904,.0001136,43.0033,354.1978,275.9842,84.0871,0,U,55346,999,8052,.21838E-4,.91E-6,0
STARLINK-5663,2023-013S,2024-07-11T13:32:24.642240,15.02538178,.0002018,43.0052,353.7445,267.0559,93.0053,0,U,55347,999,8053,.12885E-3,.1537E-4,0
STARLINK-5609,2023-013T,2024-07-11T12:09:28.631232,15.02534849,.0001416,43.0044,354.1740,268.7612,91.3069,0,U,55348,999,8052,.82625E-4,.913E-5,0
STARLINK-5666,2023-013U,2024-07-11T13:40:24.380832,15.02539422,.0001608,43.0038,353.7881,273.9012,86.1647,0,U,55349,999,8053,.43492E-5,-.145E-5,0
STARLINK-5668,2023-013V,2024-07-11T11:59:53.343744,15.02524997,.0001891,43.0048,354.1239,274.9933,85.0693,0,U,55350,999,8052,.33437E-3,.4315E-4,0
STARLINK-5659,2023-013W,2024-07-11T11:43:54.135264,15.02538303,.0001193,43.0030,354.0409,279.1789,80.8918,0,U,55351,999,8052,.98029E-5,-.71E-6,0
STARLINK-5547,2023-013X,2024-07-11T11:51:53.591328,15.02547335,.0001106,43.0006,354.0805,269.8721,90.1994,0,U,55352,999,8052,.59185E-4,.596E-5,0
STARLINK-5608,2023-013Y,2024-07-11T11:23:06.959904,15.02556551,.0001281,43.0032,353.9278,254.7061,105.3640,0,U,55353,999,8052,-.28892E-3,-.4106E-4,0
STARLINK-5649,2023-013Z,2024-07-11T11:48:35.612640,15.02635663,.0002429,43.0032,354.0632,272.0517,88.0047,0,U,55354,999,8052,.7257E-3,.9639E-4,0
STARLINK-5647,2023-013AA,2024-07-11T13:10:02.335296,15.02542550,.0000998,43.0017,353.6129,265.7286,94.3442,0,U,55355,999,8052,.34433E-3,.4452E-4,0
STARLINK-5651,2023-013AC,2024-07-10T11:39:59.470272,15.02532989,.000192,43.0066,359.4146,262.8765,97.1859,0,U,55357,999,8037,.48145E-4,.447E-5,0
STARLINK-5622,2023-013AD,2024-07-11T11:39:06.618528,15.02532133,.0001348,43.0036,354.0157,276.4225,83.6463,0,U,55358,999,8052,.641E-4,.662E-5,0
STARLINK-5641,2023-013AE,2024-07-11T13:06:50.702688,15.02533056,.0001531,43.0048,353.6097,263.7373,96.3295,0,U,55359,999,8053,.48749E-4,.455E-5,0
STARLINK-5664,2023-013AF,2024-07-11T12:42:29.737440,15.02539719,.000122,43.0035,6.4725,270.0813,89.9889,0,U,55360,999,8038,.86975E-4,.972E-5,0
STARLINK-5665,2023-013AG,2024-07-11T12:00:14.936832,15.02539938,.0001634,43.0067,341.1130,266.3609,93.7046,0,U,55361,999,8067,.74885E-4,.808E-5,0
STARLINK-5574,2023-013AH,2024-07-11T10:29:18.993696,15.02538730,.0001884,43.0061,341.4955,268.3516,91.7110,0,U,55362,999,8066,.10205E-3,.1175E-4,0
STARLINK-5648,2023-013AJ,2024-07-11T12:13:53.830848,15.02534674,.0001224,43.0036,7.1861,269.8351,90.2351,0,U,55363,999,8037,.57841E-4,.578E-5,0
STARLINK-5627,2023-013AK,2024-07-11T13:03:37.210752,15.02582199,.000144,43.0044,353.5945,270.4631,89.6046,0,U,55364,999,8053,-.75104E-3,-.10347E-3,0
STARLINK-5639,2023-013AL,2024-07-11T12:04:18.474240,15.02529852,.0001265,43.0038,7.1341,257.6626,102.4074,0,U,55365,999,8037,.13731E-3,.1651E-4,0
STARLINK-5654,2023-013AM,2024-07-11T12:08:14.868960,15.02534719,.0001239,43.0034,341.1512,268.8613,91.2087,0,U,55366,999,8067,.98526E-5,-.71E-6,0
STARLINK-5635,2023-013AN,2024-07-11T10:58:05.159424,15.02538830,.0001791,43.0068,341.6393,271.4977,88.5660,0,U,55367,999,8066,-.15782E-4,-.417E-5,0
STARLINK-5625,2023-013AP,2024-07-11T10:19:43.834944,15.02538179,.0001444,43.0055,341.4495,272.4412,87.6265,0,U,55368,999,8066,.57567E-4,.574E-5,0
STARLINK-5644,2023-013AQ,2024-07-11T13:38:25.960128,15.02535381,.0001847,43.0061,6.7654,270.3275,89.7356,0,U,55369,999,8038,.85757E-4,.955E-5,0
STARLINK-5027,2023-013AR,2024-07-10T20:11:49.289280,15.02535991,.0001888,43.0064,10.7767,269.0603,91.0023,0,U,55370,999,8027,-.12545E-4,-.373E-5,0
STARLINK-5590,2023-013AS,2024-07-11T11:48:19.594080,15.02537427,.0001109,43.0015,7.0503,266.9522,93.1193,0,U,55371,999,8129,.47162E-4,.434E-5,0
