STARLINK-5670           
1 55341U 23013L   24193.52322118 -.00001964  00000+0 -13031-3 0  9992
2 55341  43.0055 354.3018 0001620 274.5684  85.4974 15.02554049 80523
STARLINK-5657           
1 55342U 23013M   24193.45119346 -.00004732  00000+0 -33521-3 0  9994
2 55342  43.0030 354.6175 0001613 275.7779  84.2879 15.02563082 80511
STARLINK-5661           
1 55343U 23013N   24193.51211658 -.00004881  00000+0 -34621-3 0  9998
2 55343  43.0044 354.2154 0001648 281.7308  78.3350 15.02567719 80523
STARLINK-5662           
1 55344U 23013P   24193.51434559  .00001363  00000+0  11598-3 0  9994
2 55344  43.0064 354.2326 0001972 263.5579  96.5039 15.02537722 80522
STARLINK-5653           
1 55345U 23013Q   24193.57886366  .00000481  00000+0  50646-4 0  9996
2 55345  43.0049 340.8277 0001317 273.1835  86.8857 15.02535910 80681
STARLINK-5631           
1 55346U 23013R   24193.50991127  .00000091  00000+0  21838-4 0  9990
2 55346  43.0033 354.1978 0001136 275.9842  84.0871 15.02537904 80522
STARLINK-5663           
1 55347U 23013S   24193.56417410  .00001537  00000+0  12885-3 0  9992
2 55347  43.0052 353.7445 0002018 267.0559  93.0053 15.02538178 80532
STARLINK-5609           
1 55348U 23013T   24193.50658138  .00000913  00000+0  82625-4 0  9998
2 55348  43.0044 354.1740 0001416 268.7612  91.3069 15.02534849 80524
STARLINK-5666           
1 55349U 23013U   24193.56972663 -.00000145  00000+0  43492-5 0  9995
2 55349  43.0038 353.7881 0001608 273.9012  86.1647 15.02539422 80531
STARLINK-5668           
1 55350U 23013V   24193.49992296  .00004315  00000+0  33437-3 0  9991
2 55350  43.0048 354.1239 0001891 274.9933  85.0693 15.02524997 80522
STARLINK-5659           
1 55351U 23013W   24193.48882101 -.00000071  00000+0  98029-5 0  9990
2 55351  43.0030 354.0409 0001193 279.1789  80.8918 15.02538303 80522
STARLINK-5547           
1 55352U 23013X   24193.49437027  .00000596  00000+0  59185-4 0  9995
2 55352  43.0006 354.0805 0001106 269.8721  90.1994 15.02547335 80525
STARLINK-5608           
1 55353U 23013Y   24193.47438611 -.00004106  00000+0 -28892-3 0  9997
2 55353  43.0032 353.9278 0001281 254.7061 105.3640 15.02556551 80528
STARLINK-5649           
1 55354U 23013Z   24193.49207885  .00009639  00000+0  72570-3 0  9993
2 55354  43.0032 354.0632 0002429 272.0517  88.0047 15.02635663 80529
STARLINK-5647           
1 55355U 23013AA  24193.54863814  .00004452  00000+0  34433-3 0  9994
2 55355  43.0017 353.6129 0000998 265.7286  94.3442 15.02542550 80521
STARLINK-5651           
1 55357U 23013AC  24192.48610498  .00000447  00000+0  48145-4 0  9992
2 55357  43.0066 359.4146 0001920 262.8765  97.1859 15.02532989 80377
STARLINK-5622           
1 55358U 23013AD  24193.48549327  .00000662  00000+0  64100-4 0  9994
2 55358  43.0036 354.0157 0001348 276.4225  83.6463 15.02532133 80523
STARLINK-5641           
1 55359U 23013AE  24193.54642017  .00000455  00000+0  48749-4 0  9993
2 55359  43.0048 353.6097 0001531 263.7373  96.3295 15.02533056 80532
STARLINK-5664           
1 55360U 23013AF  24193.52951085  .00000972  00000+0  86975-4 0  9998
2 55360  43.0035   6.4725 0001220 270.0813  89.9889 15.02539719 80388
STARLINK-5665           
1 55361U 23013AG  24193.50017288  .00000808  00000+0  74885-4 0  9990
2 55361  43.0067 341.1130 0001634 266.3609  93.7046 15.02539938 80676
STARLINK-5574           
1 55362U 23013AH  24193.43702539  .00001175  00000+0  10205-3 0  9996
2 55362  43.0061 341.4955 0001884 268.3516  91.7110 15.02538730 80663
STARLINK-5648           
1 55363U 23013AJ  24193.50965082  .00000578  00000+0  57841-4 0  9993
2 55363  43.0036   7.1861 0001224 269.8351  90.2351 15.02534674 80371
STARLINK-5627           
1 55364U 23013AK  24193.54418068 -.00010347  00000+0 -75104-3 0  9993
2 55364  43.0044 353.5945 0001440 270.4631  89.6046 15.02582199 80537
STARLINK-5639           
1 55365U 23013AL  24193.50299160  .00001651  00000+0  13731-3 0  9994
2 55365  43.0038   7.1341 0001265 257.6626 102.4074 15.02529852 80373
STARLINK-5654           
1 55366U 23013AM  24193.50572765 -.00000071  00000+0  98526-5 0  9993
2 55366  43.0034 341.1512 0001239 268.8613  91.2087 15.02534719 80672
STARLINK-5635           
1 55367U 23013AN  24193.45700416 -.00000417  00000+0 -15782-4 0  9991
2 55367  43.0068 341.6393 0001791 271.4977  88.5660 15.02538830 80661
STARLINK-5625           
1 55368U 23013AP  24193.43036846  .00000574  00000+0  57567-4 0  9998
2 55368  43.0055 341.4495 0001444 272.4412  87.6265 15.02538179 80666
STARLINK-5644           
1 55369U 23013AQ  24193.56835602  .00000955  00000+0  85757-4 0  9995
2 55369  43.0061   6.7654 0001847 270.3275  89.7356 15.02535381 80388
STARLINK-5027           
1 55370U 23013AR  24192.84154270 -.00000373  00000+0 -12545-4 0  9993
2 55370  43.0064  10.7767 0001888 269.0603  91.0023 15.02535991 80270
STARLINK-5590           
1 55371U 23013AS  24193.49189345  .00000434  00000+0  47162-4 0  9996
2 55371  43.0015   7.0503 0001109 266.9522  93.1193 15.02537427 81296
